STARLINK-2709
1 28664C 21044AC  21325.12968438 -.00001421  00000-0 -95212-4 0  3259
2 28664  53.0561 317.6410 0001790  63.1294 234.3109 15.06398301    13
